{
  "type": "FeatureCollection",
  "features": [
    {
      "type": "Feature",
      "properties": {
        "norad_id": 42989,
        "name": "SKYSAT-C9",
        "group": "resource",
        "lat": -76.0792924548264,
        "lon": -84.68151220469508,
        "alt_km": 471.05253780308703,
        "timestamp": "2025-12-22T16:55:17.107720+00:00",
        "meta_object_name": "SKYSAT-C9",
        "meta_object_id": "2017-068C",
        "meta_epoch": "2025-12-21T19:28:44.749056",
        "meta_mean_motion": 15.36261428,
        "meta_eccentricity": 0.00104433,
        "meta_inclination": 97.4196,
        "meta_ra_of_asc_node": 126.1381,
        "meta_arg_of_pericenter": 58.73,
        "meta_mean_anomaly": 301.4966,
        "meta_ephemeris_type": 0,
        "meta_classification_type": "U",
        "meta_norad_cat_id": 42989,
        "meta_element_set_no": 999,
        "meta_rev_at_epoch": 45547,
        "meta_bstar": 0.00031500648,
        "meta_mean_motion_dot": 0.00011075,
        "meta_mean_motion_ddot": 0,
        "tle_line1": "1 42989U 17068C   25355.81162904  .00011075  00000+0  31501-3 0  9991",
        "tle_line2": "2 42989  97.4196 126.1381 0010443  58.7300 301.4966 15.36261428455479"
      },
      "geometry": {
        "type": "Point",
        "coordinates": [
          -84.68151220469508,
          -76.0792924548264
        ]
      }
    },
    {
      "type": "Feature",
      "properties": {
        "norad_id": 42990,
        "name": "SKYSAT-C8",
        "group": "resource",
        "lat": 62.63088451125697,
        "lon": -38.65059384799301,
        "alt_km": 461.13039242004197,
        "timestamp": "2025-12-22T16:55:17.107731+00:00",
        "meta_object_name": "SKYSAT-C8",
        "meta_object_id": "2017-068D",
        "meta_epoch": "2025-12-21T21:37:05.479104",
        "meta_mean_motion": 15.33109138,
        "meta_eccentricity": 0.00010393,
        "meta_inclination": 97.4289,
        "meta_ra_of_asc_node": 125.9421,
        "meta_arg_of_pericenter": 294.8108,
        "meta_mean_anomaly": 65.3026,
        "meta_ephemeris_type": 0,
        "meta_classification_type": "U",
        "meta_norad_cat_id": 42990,
        "meta_element_set_no": 999,
        "meta_rev_at_epoch": 45511,
        "meta_bstar": 0.00035698248,
        "meta_mean_motion_dot": 0.00011344,
        "meta_mean_motion_ddot": 0,
        "tle_line1": "1 42990U 17068D   25355.90075786  .00011344  00000+0  35698-3 0  9994",
        "tle_line2": "2 42990  97.4289 125.9421 0001039 294.8108  65.3026 15.33109138455116"
      },
      "geometry": {
        "type": "Point",
        "coordinates": [
          -38.65059384799301,
          62.63088451125697
        ]
      }
    },
    {
      "type": "Feature",
      "properties": {
        "norad_id": 42991,
        "name": "SKYSAT-C7",
        "group": "resource",
        "lat": -49.26093692217653,
        "lon": 136.49738329880321,
        "alt_km": 473.99657360356923,
        "timestamp": "2025-12-22T16:55:17.107741+00:00",
        "meta_object_name": "SKYSAT-C7",
        "meta_object_id": "2017-068E",
        "meta_epoch": "2025-12-21T14:29:53.176416",
        "meta_mean_motion": 15.32498854,
        "meta_eccentricity": 0.0007098,
        "meta_inclination": 97.4298,
        "meta_ra_of_asc_node": 126.6779,
        "meta_arg_of_pericenter": 29.4906,
        "meta_mean_anomaly": 330.6735,
        "meta_ephemeris_type": 0,
        "meta_classification_type": "U",
        "meta_norad_cat_id": 42991,
        "meta_element_set_no": 999,
        "meta_rev_at_epoch": 45513,
        "meta_bstar": 0.00028728,
        "meta_mean_motion_dot": 8.944e-05,
        "meta_mean_motion_ddot": 0,
        "tle_line1": "1 42991U 17068E   25355.60408769  .00008944  00000+0  28728-3 0  9991",
        "tle_line2": "2 42991  97.4298 126.6779 0007098  29.4906 330.6735 15.32498854455132"
      },
      "geometry": {
        "type": "Point",
        "coordinates": [
          136.49738329880321,
          -49.26093692217653
        ]
      }
    },
    {
      "type": "Feature",
      "properties": {
        "norad_id": 42992,
        "name": "SKYSAT-C6",
        "group": "resource",
        "lat": 36.70087790133517,
        "lon": 122.6291248481238,
        "alt_km": 465.07986266198805,
        "timestamp": "2025-12-22T16:55:17.107751+00:00",
        "meta_object_name": "SKYSAT-C6",
        "meta_object_id": "2017-068F",
        "meta_epoch": "2025-12-22T02:38:56.222016",
        "meta_mean_motion": 15.31668599,
        "meta_eccentricity": 0.00049202,
        "meta_inclination": 97.4328,
        "meta_ra_of_asc_node": 127.6172,
        "meta_arg_of_pericenter": 57.51,
        "meta_mean_anomaly": 302.6617,
        "meta_ephemeris_type": 0,
        "meta_classification_type": "U",
        "meta_norad_cat_id": 42992,
        "meta_element_set_no": 999,
        "meta_rev_at_epoch": 45519,
        "meta_bstar": 0.00036431443,
        "meta_mean_motion_dot": 0.0001107,
        "meta_mean_motion_ddot": 0,
        "tle_line1": "1 42992U 17068F   25356.11037294  .00011070  00000+0  36431-3 0  9994",
        "tle_line2": "2 42992  97.4328 127.6172 0004920  57.5100 302.6617 15.31668599455192"
      },
      "geometry": {
        "type": "Point",
        "coordinates": [
          122.6291248481238,
          36.70087790133517
        ]
      }
    },
    {
      "type": "Feature",
      "properties": {
        "norad_id": 43111,
        "name": "CARTOSAT-2F",
        "group": "resource",
        "lat": 60.946415268269135,
        "lon": 40.593838744053905,
        "alt_km": 501.7038241035498,
        "timestamp": "2025-12-22T16:55:17.107761+00:00",
        "meta_object_name": "CARTOSAT-2F",
        "meta_object_id": "2018-004A",
        "meta_epoch": "2025-12-22T07:09:56.041056",
        "meta_mean_motion": 15.19208809,
        "meta_eccentricity": 0.00014049,
        "meta_inclination": 97.4306,
        "meta_ra_of_asc_node": 53.7815,
        "meta_arg_of_pericenter": 113.0099,
        "meta_mean_anomaly": 247.1284,
        "meta_ephemeris_type": 0,
        "meta_classification_type": "U",
        "meta_norad_cat_id": 43111,
        "meta_element_set_no": 999,
        "meta_rev_at_epoch": 44047,
        "meta_bstar": 0.0001924235,
        "meta_mean_motion_dot": 3.983e-05,
        "meta_mean_motion_ddot": 0,
        "tle_line1": "1 43111U 18004A   25356.29856529  .00003983  00000+0  19242-3 0  9993",
        "tle_line2": "2 43111  97.4306  53.7815 0001404 113.0099 247.1284 15.19208809440472"
      },
      "geometry": {
        "type": "Point",
        "coordinates": [
          40.593838744053905,
          60.946415268269135
        ]
      }
    },
    {
      "type": "Feature",
      "properties": {
        "norad_id": 43259,
        "name": "GAOFEN-1 02",
        "group": "resource",
        "lat": 80.77571527280267,
        "lon": -64.49099215078219,
        "alt_km": 632.9974017195127,
        "timestamp": "2025-12-22T16:55:17.107772+00:00",
        "meta_object_name": "GAOFEN-1 02",
        "meta_object_id": "2018-031A",
        "meta_epoch": "2025-12-22T06:44:09.590784",
        "meta_mean_motion": 14.76434451,
        "meta_eccentricity": 0.00024383,
        "meta_inclination": 98.0796,
        "meta_ra_of_asc_node": 54.0735,
        "meta_arg_of_pericenter": 179.942,
        "meta_mean_anomaly": 180.179,
        "meta_ephemeris_type": 0,
        "meta_classification_type": "U",
        "meta_norad_cat_id": 43259,
        "meta_element_set_no": 999,
        "meta_rev_at_epoch": 41659,
        "meta_bstar": 0.00016239058,
        "meta_mean_motion_dot": 1.077e-05,
        "meta_mean_motion_ddot": 0,
        "tle_line1": "1 43259U 18031A   25356.28066656  .00001077  00000+0  16239-3 0  9994",
        "tle_line2": "2 43259  98.0796  54.0735 0002438 179.9420 180.1790 14.76434451416597"
      },
      "geometry": {
        "type": "Point",
        "coordinates": [
          -64.49099215078219,
          80.77571527280267
        ]
      }
    },
    {
      "type": "Feature",
      "properties": {
        "norad_id": 43260,
        "name": "GAOFEN-1 03",
        "group": "resource",
        "lat": -30.1786726313738,
        "lon": -130.36426884071693,
        "alt_km": 645.9094282693522,
        "timestamp": "2025-12-22T16:55:17.107782+00:00",
        "meta_object_name": "GAOFEN-1 03",
        "meta_object_id": "2018-031B",
        "meta_epoch": "2025-12-22T06:12:43.943616",
        "meta_mean_motion": 14.76455687,
        "meta_eccentricity": 0.00017041,
        "meta_inclination": 98.0785,
        "meta_ra_of_asc_node": 53.9272,
        "meta_arg_of_pericenter": 271.5387,
        "meta_mean_anomaly": 88.5627,
        "meta_ephemeris_type": 0,
        "meta_classification_type": "U",
        "meta_norad_cat_id": 43260,
        "meta_element_set_no": 999,
        "meta_rev_at_epoch": 41658,
        "meta_bstar": 0.00013478037,
        "meta_mean_motion_dot": 8.86e-06,
        "meta_mean_motion_ddot": 0,
        "tle_line1": "1 43260U 18031B   25356.25884194  .00000886  00000+0  13478-3 0  9997",
        "tle_line2": "2 43260  98.0785  53.9272 0001704 271.5387  88.5627 14.76455687416580"
      },
      "geometry": {
        "type": "Point",
        "coordinates": [
          -130.36426884071693,
          -30.1786726313738
        ]
      }
    }
  ]
}